OBJECT_NAME,OBJECT_ID,EPOCH,MEAN_MOTION,ECCENTRICITY,INCLINATION,RA_OF_ASC_NODE,ARG_OF_PERICENTER,MEAN_ANOMALY,EPHEMERIS_TYPE,CLASSIFICATION_TYPE,NORAD_CAT_ID,ELEMENT_SET_NO,REV_AT_EPOCH,BSTAR,MEAN_MOTION_DOT,MEAN_MOTION_DDOT
IRIDIUM 154,2018-061F,2026-07-15T13:22:58.457856,14.34217479,.00023025,86.3940,44.9399,90.6137,269.5322,0,U,43574,999,41747,.13991898E-4,.59E-6,0
IRIDIUM 163,2018-061G,2026-07-15T12:55:34.498272,14.34217269,.00021124,86.3936,44.8621,85.9654,274.1784,0,U,43575,999,41744,.549794E-5,.35E-6,0
IRIDIUM 156,2018-061H,2026-07-15T22:21:50.478336,14.34217670,.00021017,86.3936,44.7048,92.6449,267.4987,0,U,43576,999,41749,.10449183E-4,.49E-6,0
IRIDIUM 164,2018-061J,2026-07-15T21:54:26.555040,14.34218445,.00023229,86.3938,44.7537,89.1142,271.0320,0,U,43577,999,41753,.41582496E-4,.136E-5,0
IRIDIUM 159,2018-061K,2026-07-15T12:46:26.465664,14.34217468,.00021353,86.3935,44.8492,85.4483,274.6956,0,U,43578,999,41744,.9984229E-5,.48E-6,0
IRIDIUM 180,2019-002A,2026-07-15T19:27:34.935264,14.34218511,.00022161,86.3993,341.6318,90.8839,269.2610,0,U,43922,999,39309,.31419926E-4,.108E-5,0
IRIDIUM 176,2019-002B,2026-07-15T21:49:35.751648,14.72249564,.00023343,86.6112,341.5300,90.1985,269.9500,0,U,43923,999,40347,.55958097E-4,.377E-5,0
IRIDIUM 168,2019-002C,2026-07-15T22:39:22.972032,14.34216620,.00021141,86.3989,341.6542,91.4243,268.7195,0,U,43924,999,39309,-.13197732E-4,-.17E-6,0
IRIDIUM 173,2019-002D,2026-07-15T22:21:06.999264,14.34216721,.00021317,86.3986,341.5475,93.6953,266.4487,0,U,43925,999,39307,-.32787055E-4,-.72E-6,0
IRIDIUM 169,2019-002E,2026-07-15T21:49:12.809856,14.38613309,.00019086,86.4222,13.1813,104.0218,256.1193,0,U,43926,999,39435,.7197328E-5,.42E-6,0
IRIDIUM 172,2019-002F,2026-07-15T22:11:59.021952,14.34217555,.00021786,86.3990,341.5576,90.7114,269.4332,0,U,43927,999,39308,.2450782E-5,.27E-6,0
IRIDIUM 175,2019-002G,2026-07-15T18:20:19.280256,14.43627441,.00053331,86.4512,278.5763,114.1961,245.9798,0,U,43928,999,40310,.46394419E-4,.177E-5,0
IRIDIUM 171,2019-002H,2026-07-15T21:44:34.968192,14.34217724,.00022388,86.4000,341.8749,95.1181,265.0271,0,U,43929,999,39307,.7940492E-5,.42E-6,0
IRIDIUM 170,2019-002J,2026-07-15T21:58:28.802496,14.72250171,.00022529,86.6111,341.5296,86.7738,273.3737,0,U,43930,999,40348,.5644518E-4,.381E-5,0
IRIDIUM 167,2019-002K,2026-07-15T21:35:26.955456,14.34217723,.00023078,86.3992,341.5910,98.4900,261.6557,0,U,43931,999,39307,.3970694E-5,.31E-6,0
IRIDIUM 181,2023-068S,2026-07-15T12:45:21.585312,14.43312397,.00024121,86.4474,44.9372,83.4871,276.6605,0,U,56726,999,16652,.45155381E-4,.172E-5,0
IRIDIUM 177,2023-068T,2026-07-15T20:28:30.719712,14.80024364,.00021775,86.1986,315.1817,95.4912,264.6558,0,U,56727,999,17060,.69173541E-4,.55E-5,0
IRIDIUM 174,2023-068U,2026-07-15T21:40:33.355776,14.72258769,.00019833,86.6120,341.6850,88.3147,271.8297,0,U,56728,999,17024,.57648695E-4,.388E-5,0
IRIDIUM 178,2023-068V,2026-07-15T21:50:01.741632,14.80026522,.00023091,86.6536,13.3547,90.9107,269.2379,0,U,56729,999,17061,.20563816E-4,.182E-5,0
IRIDIUM 179,2023-068W,2026-07-15T00:36:38.349504,14.80033495,.00023212,86.6767,22.7863,93.3552,266.7935,0,U,56730,999,17048,.14650918E-4,.137E-5,0
